{
  "type": "FeatureCollection",
  "features": [
    {
      "type": "Feature",
      "properties": {
        "norad_id": 41772,
        "name": "SKYSAT-C5",
        "group": "resource",
        "lat": -37.453370541347105,
        "lon": 34.26299900830837,
        "alt_km": 468.10685673950775,
        "timestamp": "2025-12-10T23:33:12.484179+00:00",
        "meta_object_name": "SKYSAT-C5",
        "meta_object_id": "2016-058C",
        "meta_epoch": "2025-12-10T09:38:23.192448",
        "meta_mean_motion": 15.35296249,
        "meta_eccentricity": 0.00023985,
        "meta_inclination": 97.076,
        "meta_ra_of_asc_node": 28.246,
        "meta_arg_of_pericenter": 139.5793,
        "meta_mean_anomaly": 220.5629,
        "meta_ephemeris_type": 0,
        "meta_classification_type": "U",
        "meta_norad_cat_id": 41772,
        "meta_element_set_no": 999,
        "meta_rev_at_epoch": 51480,
        "meta_bstar": 0.00044652999,
        "meta_mean_motion_dot": 0.00015242,
        "meta_mean_motion_ddot": 0,
        "tle_line1": "1 41772U 16058C   25344.40165732  .00015242  00000+0  44653-3 0  9995",
        "tle_line2": "2 41772  97.0760  28.2460 0002398 139.5793 220.5629 15.35296249514803"
      },
      "geometry": {
        "type": "Point",
        "coordinates": [
          34.26299900830837,
          -37.453370541347105
        ]
      }
    },
    {
      "type": "Feature",
      "properties": {
        "norad_id": 41773,
        "name": "SKYSAT-C2",
        "group": "resource",
        "lat": -40.35447809052887,
        "lon": 15.606841144988703,
        "alt_km": 460.4110712613965,
        "timestamp": "2025-12-10T23:33:12.484188+00:00",
        "meta_object_name": "SKYSAT-C2",
        "meta_object_id": "2016-058D",
        "meta_epoch": "2025-12-10T08:06:25.640064",
        "meta_mean_motion": 15.37180734,
        "meta_eccentricity": 0.0004477,
        "meta_inclination": 97.0364,
        "meta_ra_of_asc_node": 8.9661,
        "meta_arg_of_pericenter": 40.507,
        "meta_mean_anomaly": 319.6508,
        "meta_ephemeris_type": 0,
        "meta_classification_type": "U",
        "meta_norad_cat_id": 41773,
        "meta_element_set_no": 999,
        "meta_rev_at_epoch": 51599,
        "meta_bstar": 0.0004509,
        "meta_mean_motion_dot": 0.00016358,
        "meta_mean_motion_ddot": 0,
        "tle_line1": "1 41773U 16058D   25344.33779676  .00016358  00000+0  45090-3 0  9991",
        "tle_line2": "2 41773  97.0364   8.9661 0004477  40.5070 319.6508 15.37180734515991"
      },
      "geometry": {
        "type": "Point",
        "coordinates": [
          15.606841144988703,
          -40.35447809052887
        ]
      }
    },
    {
      "type": "Feature",
      "properties": {
        "norad_id": 41774,
        "name": "SKYSAT-C3",
        "group": "resource",
        "lat": 75.16489199473885,
        "lon": -133.85420133731716,
        "alt_km": 425.25857883531444,
        "timestamp": "2025-12-10T23:33:12.484197+00:00",
        "meta_object_name": "SKYSAT-C3",
        "meta_object_id": "2016-058E",
        "meta_epoch": "2025-12-10T01:20:10.885056",
        "meta_mean_motion": 15.44244525,
        "meta_eccentricity": 0.00015989,
        "meta_inclination": 96.93,
        "meta_ra_of_asc_node": 17.9267,
        "meta_arg_of_pericenter": 105.6106,
        "meta_mean_anomaly": 254.5321,
        "meta_ephemeris_type": 0,
        "meta_classification_type": "U",
        "meta_norad_cat_id": 41774,
        "meta_element_set_no": 999,
        "meta_rev_at_epoch": 51684,
        "meta_bstar": 0.00053806643,
        "meta_mean_motion_dot": 0.0002469,
        "meta_mean_motion_ddot": 0,
        "tle_line1": "1 41774U 16058E   25344.05568154  .00024690  00000+0  53807-3 0  9991",
        "tle_line2": "2 41774  96.9300  17.9267 0001598 105.6106 254.5321 15.44244525516848"
      },
      "geometry": {
        "type": "Point",
        "coordinates": [
          -133.85420133731716,
          75.16489199473885
        ]
      }
    },
    {
      "type": "Feature",
      "properties": {
        "norad_id": 41785,
        "name": "ALSAT 1B",
        "group": "resource",
        "lat": 57.31190429005637,
        "lon": -15.457132653226383,
        "alt_km": 644.1288412174508,
        "timestamp": "2025-12-10T23:33:12.484206+00:00",
        "meta_object_name": "ALSAT 1B",
        "meta_object_id": "2016-059C",
        "meta_epoch": "2025-12-10T13:30:08.177760",
        "meta_mean_motion": 14.72072314,
        "meta_eccentricity": 0.00106335,
        "meta_inclination": 97.7813,
        "meta_ra_of_asc_node": 356.4459,
        "meta_arg_of_pericenter": 109.3535,
        "meta_mean_anomaly": 250.8824,
        "meta_ephemeris_type": 0,
        "meta_classification_type": "U",
        "meta_norad_cat_id": 41785,
        "meta_element_set_no": 999,
        "meta_rev_at_epoch": 49282,
        "meta_bstar": 0.0001390066,
        "meta_mean_motion_dot": 8.27e-06,
        "meta_mean_motion_ddot": 0,
        "tle_line1": "1 41785U 16059C   25344.56259465  .00000827  00000+0  13901-3 0  9999",
        "tle_line2": "2 41785  97.7813 356.4459 0010633 109.3535 250.8824 14.72072314492822"
      },
      "geometry": {
        "type": "Point",
        "coordinates": [
          -15.457132653226383,
          57.31190429005637
        ]
      }
    },
    {
      "type": "Feature",
      "properties": {
        "norad_id": 41787,
        "name": "PATHFINDER 1",
        "group": "resource",
        "lat": 12.486613261081253,
        "lon": 169.57921279209455,
        "alt_km": 667.4622435705733,
        "timestamp": "2025-12-10T23:33:12.484215+00:00",
        "meta_object_name": "PATHFINDER 1",
        "meta_object_id": "2016-059E",
        "meta_epoch": "2025-12-10T11:20:24.891648",
        "meta_mean_motion": 14.67314596,
        "meta_eccentricity": 0.00300568,
        "meta_inclination": 97.8139,
        "meta_ra_of_asc_node": 347.3513,
        "meta_arg_of_pericenter": 88.0496,
        "meta_mean_anomaly": 272.4151,
        "meta_ephemeris_type": 0,
        "meta_classification_type": "U",
        "meta_norad_cat_id": 41787,
        "meta_element_set_no": 999,
        "meta_rev_at_epoch": 49203,
        "meta_bstar": 0.00023091815,
        "meta_mean_motion_dot": 1.265e-05,
        "meta_mean_motion_ddot": 0,
        "tle_line1": "1 41787U 16059E   25344.47251032  .00001265  00000+0  23092-3 0  9992",
        "tle_line2": "2 41787  97.8139 347.3513 0030056  88.0496 272.4151 14.67314596492037"
      },
      "geometry": {
        "type": "Point",
        "coordinates": [
          169.57921279209455,
          12.486613261081253
        ]
      }
    },
    {
      "type": "Feature",
      "properties": {
        "norad_id": 41790,
        "name": "SCATSAT 1",
        "group": "resource",
        "lat": 80.73423466368146,
        "lon": -19.77563808939909,
        "alt_km": 598.7738693225574,
        "timestamp": "2025-12-10T23:33:12.484224+00:00",
        "meta_object_name": "SCATSAT 1",
        "meta_object_id": "2016-059H",
        "meta_epoch": "2025-12-10T15:02:56.368320",
        "meta_mean_motion": 14.78925621,
        "meta_eccentricity": 0.00561712,
        "meta_inclination": 98.1464,
        "meta_ra_of_asc_node": 41.2708,
        "meta_arg_of_pericenter": 134.6615,
        "meta_mean_anomaly": 225.9194,
        "meta_ephemeris_type": 0,
        "meta_classification_type": "U",
        "meta_norad_cat_id": 41790,
        "meta_element_set_no": 999,
        "meta_rev_at_epoch": 7371,
        "meta_bstar": 0.00035682827,
        "meta_mean_motion_dot": 2.646e-05,
        "meta_mean_motion_ddot": 0,
        "tle_line1": "1 41790U 16059H   25344.62704130  .00002646  00000+0  35683-3 0  9998",
        "tle_line2": "2 41790  98.1464  41.2708 0056171 134.6615 225.9194 14.78925621 73718"
      },
      "geometry": {
        "type": "Point",
        "coordinates": [
          -19.77563808939909,
          80.73423466368146
        ]
      }
    },
    {
      "type": "Feature",
      "properties": {
        "norad_id": 41875,
        "name": "GOKTURK 1A",
        "group": "resource",
        "lat": -81.3993931159393,
        "lon": -51.4337783085938,
        "alt_km": 692.4227123299679,
        "timestamp": "2025-12-10T23:33:12.484233+00:00",
        "meta_object_name": "GOKTURK 1A",
        "meta_object_id": "2016-073A",
        "meta_epoch": "2025-12-10T15:44:36.182976",
        "meta_mean_motion": 14.62774904,
        "meta_eccentricity": 0.00012383,
        "meta_inclination": 98.1426,
        "meta_ra_of_asc_node": 237.0487,
        "meta_arg_of_pericenter": 79.6072,
        "meta_mean_anomaly": 280.5269,
        "meta_ephemeris_type": 0,
        "meta_classification_type": "U",
        "meta_norad_cat_id": 41875,
        "meta_element_set_no": 999,
        "meta_rev_at_epoch": 48126,
        "meta_bstar": 0.00012274344,
        "meta_mean_motion_dot": 5.79e-06,
        "meta_mean_motion_ddot": 0,
        "tle_line1": "1 41875U 16073A   25344.65597434  .00000579  00000+0  12274-3 0  9992",
        "tle_line2": "2 41875  98.1426 237.0487 0001238  79.6072 280.5269 14.62774904481260"
      },
      "geometry": {
        "type": "Point",
        "coordinates": [
          -51.4337783085938,
          -81.3993931159393
        ]
      }
    }
  ]
}